PATHFINDER 1            
1 41787U 16059E   26095.25349210  .00001171  00000+0  21310-3 0  9995
2 41787  97.8184  97.8236 0029958  79.4431 281.0147 14.67570168509015
SCATSAT 1               
1 41790U 16059H   26095.16892370  .00002393  00000+0  32016-3 0  9991
2 41790  98.1246 158.1713 0056021 122.8441 237.8181 14.79361339 90796
GOKTURK 1A              
1 41875U 16073A   26095.25903214  .00000794  00000+0  16487-3 0  9998
2 41875  98.1329 351.0466 0001364  81.5969 278.5387 14.62779733498163
RESOURCESAT-2A          
1 41877U 16074A   26095.29537113  .00000116  00000+0  73019-4 0  9999
2 41877  98.7561 169.3846 0001081 308.6202  51.4878 14.21611709483946
CARTOSAT-2D             
1 41948U 17008A   26092.15239628  .00000233  00000+0  14239-4 0  9997
2 41948  97.4190 152.8466 0005833 141.2675 218.8979 15.19319362506033
SENTINEL-2B             
1 42063U 17013A   26095.27043465  .00000144  00000+0  71560-4 0  9991
2 42063  98.5670 171.0829 0001195  94.9322 265.1998 14.30817942474212
CARTOSAT-2E             
1 42767U 17036C   26094.07949476  .00000200  00000+0  12647-4 0  9995
2 42767  97.4352 155.0745 0003518 187.0170 173.1016 15.19322845486890
FORMOSAT-5              
1 42920U 17049A   26095.29482183  .00000326  00000+0  93908-4 0  9990
2 42920  98.2275 172.2198 0010613 314.4571  45.5755 14.50710824456107
SENTINEL-5P             
1 42969U 17064A   26094.82562103  .00000125  00000+0  80193-4 0  9998
2 42969  98.7919  37.4855 0001248  89.0883 271.0436 14.19506053439157
SKYSAT-C11              
1 42987U 17068A   26095.12995528  .00037456  00000+0  57485-3 0  9991
2 42987  97.4258 241.0351 0000542 167.5091 192.6176 15.54203828471881
SKYSAT-C10              
1 42988U 17068B   26095.29821814  .00014175  00000+0  44181-3 0  9998
2 42988  97.4392 231.5554 0001051 110.9460 249.1895 15.33360883471189
SKYSAT-C9               
1 42989U 17068C   26095.30050424  .00018594  00000+0  47002-3 0  9996
2 42989  97.4315 231.8243 0009323  46.3877 313.8141 15.39800385471531
SKYSAT-C8               
1 42990U 17068D   26095.31100309  .00015712  00000+0  45702-3 0  9991
2 42990  97.4410 231.0999 0001048  94.9798 265.1565 15.35526122471120
SKYSAT-C7               
1 42991U 17068E   26095.30192128  .00015274  00000+0  44484-3 0  9990
2 42991  97.4421 232.0754 0006183  20.5120 339.6371 15.35475037471188
SKYSAT-C6               
1 42992U 17068F   26094.81530663  .00013535  00000+0  42458-3 0  9993
2 42992  97.4454 231.7910 0003490  64.1466 296.0136 15.33161354471075
CARTOSAT-2F             
1 43111U 18004A   26095.23112267  .00005021  00000+0  24149-3 0  9999
2 43111  97.4106 155.9040 0001985 131.6191 228.5214 15.19240737456253
