[{"OBJECT_NAME":"PATHFINDER 1","OBJECT_ID":"2016-059E","EPOCH":"2026-04-05T06:05:01.717440","MEAN_MOTION":14.67570168,"ECCENTRICITY":0.00299585,"INCLINATION":97.8184,"RA_OF_ASC_NODE":97.8236,"ARG_OF_PERICENTER":79.4431,"MEAN_ANOMALY":281.0147,"EPHEMERIS_TYPE":0,"CLASSIFICATION_TYPE":"U","NORAD_CAT_ID":41787,"ELEMENT_SET_NO":999,"REV_AT_EPOCH":50901,"BSTAR":0.00021310123,"MEAN_MOTION_DOT":1.171e-5,"MEAN_MOTION_DDOT":0},{"OBJECT_NAME":"SCATSAT 1","OBJECT_ID":"2016-059H","EPOCH":"2026-04-05T04:03:15.007680","MEAN_MOTION":14.79361339,"ECCENTRICITY":0.00560216,"INCLINATION":98.1246,"RA_OF_ASC_NODE":158.1713,"ARG_OF_PERICENTER":122.8441,"MEAN_ANOMALY":237.8181,"EPHEMERIS_TYPE":0,"CLASSIFICATION_TYPE":"U","NORAD_CAT_ID":41790,"ELEMENT_SET_NO":999,"REV_AT_EPOCH":9079,"BSTAR":0.00032015706,"MEAN_MOTION_DOT":2.393e-5,"MEAN_MOTION_DDOT":0},{"OBJECT_NAME":"GOKTURK 1A","OBJECT_ID":"2016-073A","EPOCH":"2026-04-05T06:13:00.376896","MEAN_MOTION":14.62779733,"ECCENTRICITY":0.00013643,"INCLINATION":98.1329,"RA_OF_ASC_NODE":351.0466,"ARG_OF_PERICENTER":81.5969,"MEAN_ANOMALY":278.5387,"EPHEMERIS_TYPE":0,"CLASSIFICATION_TYPE":"U","NORAD_CAT_ID":41875,"ELEMENT_SET_NO":999,"REV_AT_EPOCH":49816,"BSTAR":0.00016486778,"MEAN_MOTION_DOT":7.94e-6,"MEAN_MOTION_DDOT":0},{"OBJECT_NAME":"RESOURCESAT-2A","OBJECT_ID":"2016-074A","EPOCH":"2026-04-05T07:05:20.065632","MEAN_MOTION":14.21611709,"ECCENTRICITY":0.00010819,"INCLINATION":98.7561,"RA_OF_ASC_NODE":169.3846,"ARG_OF_PERICENTER":308.6202,"MEAN_ANOMALY":51.4878,"EPHEMERIS_TYPE":0,"CLASSIFICATION_TYPE":"U","NORAD_CAT_ID":41877,"ELEMENT_SET_NO":999,"REV_AT_EPOCH":48394,"BSTAR":7.3019288e-5,"MEAN_MOTION_DOT":1.16e-6,"MEAN_MOTION_DDOT":0},{"OBJECT_NAME":"CARTOSAT-2D","OBJECT_ID":"2017-008A","EPOCH":"2026-04-02T03:39:27.038592","MEAN_MOTION":15.19319362,"ECCENTRICITY":0.00058333,"INCLINATION":97.419,"RA_OF_ASC_NODE":152.8466,"ARG_OF_PERICENTER":141.2675,"MEAN_ANOMALY":218.8979,"EPHEMERIS_TYPE":0,"CLASSIFICATION_TYPE":"U","NORAD_CAT_ID":41948,"ELEMENT_SET_NO":999,"REV_AT_EPOCH":50603,"BSTAR":1.4238816e-5,"MEAN_MOTION_DOT":2.33e-6,"MEAN_MOTION_DDOT":0},{"OBJECT_NAME":"SENTINEL-2B","OBJECT_ID":"2017-013A","EPOCH":"2026-04-05T06:29:25.553760","MEAN_MOTION":14.30817942,"ECCENTRICITY":0.00011958,"INCLINATION":98.567,"RA_OF_ASC_NODE":171.0829,"ARG_OF_PERICENTER":94.9322,"MEAN_ANOMALY":265.1998,"EPHEMERIS_TYPE":0,"CLASSIFICATION_TYPE":"U","NORAD_CAT_ID":42063,"ELEMENT_SET_NO":999,"REV_AT_EPOCH":47421,"BSTAR":7.1559922e-5,"MEAN_MOTION_DOT":1.44e-6,"MEAN_MOTION_DDOT":0},{"OBJECT_NAME":"CARTOSAT-2E","OBJECT_ID":"2017-036C","EPOCH":"2026-04-04T01:54:28.347264","MEAN_MOTION":15.19322845,"ECCENTRICITY":0.00035187,"INCLINATION":97.4352,"RA_OF_ASC_NODE":155.0745,"ARG_OF_PERICENTER":187.017,"MEAN_ANOMALY":173.1016,"EPHEMERIS_TYPE":0,"CLASSIFICATION_TYPE":"U","NORAD_CAT_ID":42767,"ELEMENT_SET_NO":999,"REV_AT_EPOCH":48689,"BSTAR":1.2646738e-5,"MEAN_MOTION_DOT":2.0e-6,"MEAN_MOTION_DDOT":0},{"OBJECT_NAME":"FORMOSAT-5","OBJECT_ID":"2017-049A","EPOCH":"2026-04-05T07:04:32.606112","MEAN_MOTION":14.50710824,"ECCENTRICITY":0.00106139,"INCLINATION":98.2275,"RA_OF_ASC_NODE":172.2198,"ARG_OF_PERICENTER":314.4571,"MEAN_ANOMALY":45.5755,"EPHEMERIS_TYPE":0,"CLASSIFICATION_TYPE":"U","NORAD_CAT_ID":42920,"ELEMENT_SET_NO":999,"REV_AT_EPOCH":45610,"BSTAR":9.3907758e-5,"MEAN_MOTION_DOT":3.26e-6,"MEAN_MOTION_DDOT":0},{"OBJECT_NAME":"SENTINEL-5P","OBJECT_ID":"2017-064A","EPOCH":"2026-04-04T19:48:53.656992","MEAN_MOTION":14.19506053,"ECCENTRICITY":0.00012481,"INCLINATION":98.7919,"RA_OF_ASC_NODE":37.4855,"ARG_OF_PERICENTER":89.0883,"MEAN_ANOMALY":271.0436,"EPHEMERIS_TYPE":0,"CLASSIFICATION_TYPE":"U","NORAD_CAT_ID":42969,"ELEMENT_SET_NO":999,"REV_AT_EPOCH":43915,"BSTAR":8.0192822e-5,"MEAN_MOTION_DOT":1.25e-6,"MEAN_MOTION_DDOT":0},{"OBJECT_NAME":"SKYSAT-C11","OBJECT_ID":"2017-068A","EPOCH":"2026-04-05T03:07:08.136192","MEAN_MOTION":15.54203828,"ECCENTRICITY":5.427e-5,"INCLINATION":97.4258,"RA_OF_ASC_NODE":241.0351,"ARG_OF_PERICENTER":167.5091,"MEAN_ANOMALY":192.6176,"EPHEMERIS_TYPE":0,"CLASSIFICATION_TYPE":"U","NORAD_CAT_ID":42987,"ELEMENT_SET_NO":999,"REV_AT_EPOCH":47188,"BSTAR":0.00057485198,"MEAN_MOTION_DOT":0.00037456,"MEAN_MOTION_DDOT":0},{"OBJECT_NAME":"SKYSAT-C10","OBJECT_ID":"2017-068B","EPOCH":"2026-04-05T07:09:26.047296","MEAN_MOTION":15.33360883,"ECCENTRICITY":0.00010513,"INCLINATION":97.4392,"RA_OF_ASC_NODE":231.5554,"ARG_OF_PERICENTER":110.946,"MEAN_ANOMALY":249.1895,"EPHEMERIS_TYPE":0,"CLASSIFICATION_TYPE":"U","NORAD_CAT_ID":42988,"ELEMENT_SET_NO":999,"REV_AT_EPOCH":47118,"BSTAR":0.00044181019,"MEAN_MOTION_DOT":0.00014175,"MEAN_MOTION_DDOT":0},{"OBJECT_NAME":"SKYSAT-C9","OBJECT_ID":"2017-068C","EPOCH":"2026-04-05T07:12:43.566336","MEAN_MOTION":15.39800385,"ECCENTRICITY":0.00093234,"INCLINATION":97.4315,"RA_OF_ASC_NODE":231.8243,"ARG_OF_PERICENTER":46.3877,"MEAN_ANOMALY":313.8141,"EPHEMERIS_TYPE":0,"CLASSIFICATION_TYPE":"U","NORAD_CAT_ID":42989,"ELEMENT_SET_NO":999,"REV_AT_EPOCH":47153,"BSTAR":0.00047001979,"MEAN_MOTION_DOT":0.00018594,"MEAN_MOTION_DDOT":0},{"OBJECT_NAME":"SKYSAT-C8","OBJECT_ID":"2017-068D","EPOCH":"2026-04-05T07:27:50.666976","MEAN_MOTION":15.35526122,"ECCENTRICITY":0.00010481,"INCLINATION":97.441,"RA_OF_ASC_NODE":231.0999,"ARG_OF_PERICENTER":94.9798,"MEAN_ANOMALY":265.1565,"EPHEMERIS_TYPE":0,"CLASSIFICATION_TYPE":"U","NORAD_CAT_ID":42990,"ELEMENT_SET_NO":999,"REV_AT_EPOCH":47112,"BSTAR":0.00045701998,"MEAN_MOTION_DOT":0.00015712,"MEAN_MOTION_DDOT":0},{"OBJECT_NAME":"SKYSAT-C7","OBJECT_ID":"2017-068E","EPOCH":"2026-04-05T07:14:45.998592","MEAN_MOTION":15.35475037,"ECCENTRICITY":0.00061833,"INCLINATION":97.4421,"RA_OF_ASC_NODE":232.0754,"ARG_OF_PERICENTER":20.512,"MEAN_ANOMALY":339.6371,"EPHEMERIS_TYPE":0,"CLASSIFICATION_TYPE":"U","NORAD_CAT_ID":42991,"ELEMENT_SET_NO":999,"REV_AT_EPOCH":47118,"BSTAR":0.00044483722,"MEAN_MOTION_DOT":0.00015274,"MEAN_MOTION_DDOT":0},{"OBJECT_NAME":"SKYSAT-C6","OBJECT_ID":"2017-068F","EPOCH":"2026-04-04T19:34:02.492832","MEAN_MOTION":15.33161354,"ECCENTRICITY":0.00034904,"INCLINATION":97.4454,"RA_OF_ASC_NODE":231.791,"ARG_OF_PERICENTER":64.1466,"MEAN_ANOMALY":296.0136,"EPHEMERIS_TYPE":0,"CLASSIFICATION_TYPE":"U","NORAD_CAT_ID":42992,"ELEMENT_SET_NO":999,"REV_AT_EPOCH":47107,"BSTAR":0.00042458218,"MEAN_MOTION_DOT":0.00013535,"MEAN_MOTION_DDOT":0},{"OBJECT_NAME":"CARTOSAT-2F","OBJECT_ID":"2018-004A","EPOCH":"2026-04-05T05:32:48.998688","MEAN_MOTION":15.19240737,"ECCENTRICITY":0.00019853,"INCLINATION":97.4106,"RA_OF_ASC_NODE":155.904,"ARG_OF_PERICENTER":131.6191,"MEAN_ANOMALY":228.5214,"EPHEMERIS_TYPE":0,"CLASSIFICATION_TYPE":"U","NORAD_CAT_ID":43111,"ELEMENT_SET_NO":999,"REV_AT_EPOCH":45625,"BSTAR":0.00024148939,"MEAN_MOTION_DOT":5.021e-5,"MEAN_MOTION_DDOT":0}]
